BEESAT-4                
1 41619U 16040W   23101.12716430  .00066489  00000+0  11868-2 0  9991
2 41619  97.1681 150.6160 0007863 128.4622 231.7337 15.49802316366452
RAVAN                   
1 41849U 16067B   23101.41028674  .00008804  00000+0  62648-3 0  9993
2 41849  98.0289 253.1439 0017352  57.2779 303.0116 15.04776313350724
CELTEE 1                
1 41850U 16067C   23101.83277573  .00006076  00000+0  48179-3 0  9997
2 41850  98.0429 247.5173 0005004 113.6366 246.5383 15.00917789350462
OPTICUBE 04             
1 41851U 16067D   23101.67461161  .00004385  00000+0  36336-3 0  9991
2 41851  98.0345 245.8417 0010546  79.8964 280.3447 14.99350458350363
AEROCUBE 8D             
1 41852U 16067E   23101.88546420  .00007717  00000+0  60561-3 0  9996
2 41852  98.0528 246.5584 0005046  93.0785 267.1015 15.01219392350413
AEROCUBE 8C             
1 41853U 16067F   23101.93989765  .00007127  00000+0  56054-3 0  9993
2 41853  98.0397 246.3268 0009210  34.6780 325.5042 15.01143809350416
PROMETHEUS 2-1          
1 41854U 16067G   23101.41018598  .00011450  00000+0  82408-3 0  9990
2 41854  98.0593 248.2445 0018026  83.0402 277.2872 15.04258458350444
PROMETHEUS 2-3          
1 41855U 16067H   23101.93489244  .00011866  00000+0  85477-3 0  9998
2 41855  98.0515 248.7219 0015864  90.9404 269.3639 15.04247685350521
INS-1B                  
1 41954U 17008G   23101.91368793  .00054970  00000+0  10250-2 0  9996
2 41954  97.2085 162.2794 0005353 218.8142 141.2725 15.48620030342593
DIDO-2                  
1 42000U 17008BE  23101.89767496  .00023612  00000+0  65349-3 0  9998
2 42000  97.2094 159.1233 0004790 264.7882  95.2816 15.36983138341747
PEASSS                  
1 42015U 17008BV  23101.16615221  .00044374  00000+0  91361-3 0  9993
2 42015  97.2157 164.6903 0003280 235.3898 124.7043 15.45801993342482
AL-FARABI 1             
1 42016U 17008BW  23101.60959354  .00107937  00000+0  13839-2 0  9999
2 42016  97.2214 170.8731 0003848 217.8211 142.2776 15.58786872342995
NAYIF-1 (EO-88)         
1 42017U 17008BX  23101.18305772  .00094313  00000+0  11792-2 0  9991
2 42017  97.2190 170.5427 0004072 225.5815 134.5109 15.59501725342968
UCLSAT                  
1 42765U 17036A   23101.10155132  .00051558  00000+0  11069-2 0  9998
2 42765  97.1518 140.8008 0005008 346.3986  13.7127 15.44526559323500
AALTO-1                 
1 42775U 17036L   23101.80980369  .00019515  00000+0  61279-3 0  9990
2 42775  97.1610 133.8587 0009625 355.7972   4.3188 15.33003189322347
URSA MAIOR              
1 42776U 17036M   23101.03368335  .00024504  00000+0  73424-3 0  9998
2 42776  97.1617 134.2659 0009009 355.2708   4.8449 15.34453562322281
COMPASS 2               
1 42777U 17036N   23101.88813148  .00126958  00000+0  14975-2 0  9990
2 42777  97.1538 146.6251 0003274 272.6147  87.4737 15.60926564323101
DIAMOND RED             
1 42783U 17036U   23101.85122075  .00027610  00000+0  76283-3 0  9992
2 42783  97.1600 138.1142 0007251 358.0646   2.0569 15.36990236322593
PEGASUS                 
1 42784U 17036V   23101.09927999  .00042714  00000+0  10049-2 0  9996
2 42784  97.1567 139.5612 0005983 350.5849   9.5286 15.41832428322621
DIAMOND GREEN           
1 42785U 17036W   23101.82289039  .00028836  00000+0  77985-3 0  9996
2 42785  97.1594 138.2155 0006856 359.6901   0.4339 15.37648989322664
DIAMOND BLUE            
1 42786U 17036X   23101.05209347  .00030171  00000+0  82409-3 0  9998
2 42786  97.1599 137.4348 0007276   0.5050 359.6201 15.37329198322541
NUDTSAT                 
1 42787U 17036Y   23101.92923961  .00193279  00000+0  17685-2 0  9992
2 42787  97.1502 148.7948 0002703 244.6224 115.4803 15.67195268323124
SUCHAI                  
1 42788U 17036Z   23101.85940722  .00056031  00000+0  10587-2 0  9997
2 42788  97.1548 143.2936 0003966 332.8260  27.2783 15.48240755323009
SKCUBE                  
1 42789U 17036AA  23101.10086000  .00051719  00000+0  10966-2 0  9995
2 42789  97.1558 141.3751 0004833 343.3542  16.7548 15.44895366322730
VZLUSAT-1               
1 42790U 17036AB  23101.12251424  .00169660  00000+0  16759-2 0  9994
2 42790  97.1501 147.7588 0002590 262.3937  97.7029 15.65350791323133
ROBUSTA 1B              
1 42792U 17036AD  23101.05743435  .00055543  00000+0  10889-2 0  9998
2 42792  97.1538 142.3182 0003907 340.9457  19.1647 15.47176524322806
CICERO 6                
1 42793U 17036AE  23101.82496623  .00023467  00000+0  67398-3 0  9996
2 42793  97.1587 138.3757 0006474   0.2315 359.8931 15.35817293322706
CORVUS BC2              
1 42846U 17042X   23101.84570131  .00004083  00000+0  38431-3 0  9990
2 42846  97.3931 306.9038 0010640  78.9393 281.3024 14.94326865312810
CORVUS BC1              
1 42847U 17042Y   23101.64006074  .00003565  00000+0  33544-3 0  9993
2 42847  97.3925 307.0591 0010229  78.6706 281.5664 14.94420455312797
MIRATA                  
1 43015U 17073C   23101.94562162  .00012615  00000+0  82275-3 0  9994
2 43015  97.6411 351.7132 0215808 275.5436  82.1206 14.90815832291610
MAKERSAT 0              
1 43016U 17073D   23101.12754066  .00010101  00000+0  69778-3 0  9992
2 43016  97.6405 349.4420 0228470 286.3757  71.2453 14.87137166291349
CORVUS BC3              
1 43118U 18004H   23101.61644887  .00024724  00000+0  71397-3 0  9999
2 43118  97.3266 176.1573 0007332  36.0209 324.1527 15.35631420291812
CICERO 7                
1 43143U 18004AJ  23101.22764330  .00041761  00000+0  78959-3 0  9991
2 43143  97.3447 186.4361 0003100  24.3820 335.7576 15.48293394292370
GOMX-4B                 
1 43196U 18015E   23101.40627095  .00018886  00000+0  57113-3 0  9998
2 43196  97.5699 250.4446 0015805  86.5266 273.7784 15.34138264288707
GOMX-4A                 
1 43197U 18015F   23101.95750874  .00023054  00000+0  63519-3 0  9991
2 43197  97.5687 252.7879 0015080  81.8997  36.6270 15.37029331288910
AEROCUBE 12A            
1 43556U 18046C   23101.83670260  .00186260  00000+0  12515-2 0  9999
2 43556  51.6220 147.7495 0011826  22.4030 337.7483 15.74002739265564
AEROCUBE 12B            
1 43557U 18046D   23101.52368523  .00085255  00000+0  10600-2 0  9997
2 43557  51.6294 164.3470 0009600  13.3279 346.7965 15.59185130265267
CUBEBEL-1 (BSUSAT-1)    
1 43666U 18083E   23101.77657009  .00030807  00000+0  93799-3 0  9990
2 43666  97.3888 133.1666 0009774  11.4425 102.7086 15.33895545247005
CICERO 10               
1 43690U 18088A   23101.48055223  .00022552  00000+0  69194-3 0  9990
2 43690  85.0287 117.5795 0014421 118.9087 241.3610 15.33520096245265
PROXIMA I               
1 43694U 18088E   23101.74365267  .00025036  00000+0  71494-3 0  9991
2 43694  85.0225 113.2836 0017124  89.3613 270.9598 15.35734552245572
PROXIMA II              
1 43696U 18088G   23101.75268920  .00024791  00000+0  70987-3 0  9995
2 43696  85.0226 113.3168 0017272  89.3261 270.9967 15.35647150245563
FACSAT-1                
1 43721U 18096C   23101.93492961  .00197399  00000+0  16411-2 0  9993
2 43721  97.3116 190.1797 0003012  60.6726  54.7390 15.69541037244080
SIRION PATHFINDER-2     
1 43759U 18099B   23101.88231961  .00003443  00000+0  29415-3 0  9997
2 43759  97.5789 165.4671 0013033 345.1071  14.9766 14.98243655237693
CORVUS BC4              
1 43767U 18099K   23101.88811406  .00004133  00000+0  35767-3 0  9998
2 43767  97.5724 163.5291 0010644 351.2133   8.8901 14.97652681237606
MOVE-II                 
1 43780U 18099Y   23101.93241773  .00012131  00000+0  92051-3 0  9999
2 43780  97.5748 167.4057 0009030  20.1629 339.9951 15.02324774237787
SPACEBEE-7              
1 43816U 18099BL  23101.93162500  .00009563  00000+0  74378-3 0  9996
2 43816  97.6004 168.0987 0013747 325.0318  35.0002 15.01408270237362
SPACEBEE-5              
1 43817U 18099BM  23101.92558080  .00031438  00000+0  17874-2 0  9991
2 43817  97.5961 174.0391 0002564 303.4689  56.6296 15.12812844237661
SPACEBEE-6              
1 43818U 18099BN  23101.16055499  .00012410  00000+0  89457-3 0  9990
2 43818  97.5936 169.1397 0011215 347.6643  12.4307 15.04245924237481
SHIELDS 1               
1 43850U 18104B   23101.35252330  .00009550  00000+0  35403-3 0  9990
2 43850  85.0303 214.1065 0011883 239.9077 120.0990 15.27400034239908
STF-1                   
1 43852U 18104D   23101.71180429  .00038776  00000+0  10167-2 0  9992
2 43852  85.0288 212.5151 0011262 240.4619 119.5510 15.38438329240161
ZACUBE-2                
1 43907U 18111AH  23101.94449995  .00027148  00000+0  74693-3 0  9998
2 43907  97.1483 343.2403 0018247  93.7703 277.1861 15.36978734238960
LUME 1                  
1 43908U 18111AJ  23101.92725927  .00032083  00000+0  74861-3 0  9990
2 43908  97.1495 346.3244 0016214  83.4679 276.8414 15.42018501239168
MOVE-IIB                
1 44398U 19038N   23101.90244948  .00047055  00000+0  14231-2 0  9999
2 44398  97.6602  81.9018 0016898 155.8235 204.3803 15.33919972208489
SONATE                  
1 44400U 19038Q   23101.89962131  .00011481  00000+0  53643-3 0  9997
2 44400  97.6803  78.2741 0021309 176.3650 183.7742 15.19767349208160
LUCKY-7                 
1 44406U 19038W   23101.89658860  .00016144  00000+0  70443-3 0  9992
2 44406  97.6777  79.3117 0020048 171.0417 189.1180 15.22051969208239
BEESAT 9                
1 44412U 19038AC  23101.69313483  .00028397  00000+0  10812-2 0  9992
2 44412  97.6719  80.3272 0016947 169.2781 190.8821 15.26566282208001
JAISAT-1                
1 44419U 19038F   23101.91957715  .00025590  00000+0  96438-3 0  9997
2 44419  97.6719  81.6101 0016323 164.4448 195.7295 15.26938012208416
DUCHIFAT-3              
1 44854U 19089C   23101.79198814  .00009345  00000+0  64884-3 0  9999
2 44854  36.9634 127.7672 0007804 144.2416  23.3242 15.05077794182823
EYESAT-NANO             
1 44877U 19092E   23101.76031246  .00047020  00000+0  13321-2 0  9991
2 44877  97.4613 290.9936 0006623  17.1942 342.9525 15.36098225183880
